CONNECTA T1.2           
1 55012U 23001D   26138.14229822  .00027347  00000+0  51621-3 0  9999
2 55012  97.3288 208.3490 0006417 188.0128 172.1022 15.48410167187899
BIRKELAND               
1 55015U 23001G   26138.12274663  .00006398  00000+0  16502-3 0  9995
2 55015  97.3357 206.0265 0006336 198.3181 161.7837 15.39507355187723
ION SCV-008             
1 55051U 23001AU  26138.18680288  .00004126  00000+0  15255-3 0  9996
2 55051  97.5699 234.0152 0016431 117.0006 243.2912 15.28171874186754
ION SCV-007             
1 55060U 23001BD  26138.12973676  .00000276  00000+0  45831-4 0  9992
2 55060  97.9022 201.7386 0013735  75.2347 285.0385 14.77523044181818
HUYGENS                 
1 55093U 23001CN  26138.12282689  .00006486  00000+0  16712-3 0  9999
2 55093  97.3262 205.2952 0009766 181.0470 179.0757 15.39506607187742
SHARJAHSAT-1            
1 55104U 23001CZ  26138.12781411  .00013041  00000+0  25204-3 0  9990
2 55104  97.3186 206.5019 0005674 194.3482 165.7608 15.47890113187847
HORUS 1                 
1 55690U 23025A   26137.67527362  .00003973  00000+0  16897-3 0  9999
2 55690  97.3470 212.9099 0002250 107.7511 252.3972 15.23587247179405
HORUS 2                 
1 55844U 23032A   26138.17103641  .00004162  00000+0  17769-3 0  9994
2 55844  97.3539 214.1713 0002977 136.0281 224.1193 15.23434604176917
GLOBAL-19               
1 55982U 23041B   26138.03909363  .00009527  00000+0  25271-3 0  9994
2 55982  42.0031  17.7796 0005112 141.3666 218.7540 15.38374271177287
BRO-9                   
1 56185U 23054H   26137.45800378  .00173226  00000+0  80558-3 0  9992
2 56185  97.2990  53.6638 0007832 121.1703 239.0335 15.82872718174207
ION SCV-010             
1 56192U 23054Q   26138.12858178  .00003330  00000+0  13250-3 0  9999
2 56192  97.3817  28.0137 0011553 317.4685  42.5657 15.25910725171612
TELEOS-2                
1 56310U 23057C   26138.22960455  .00003620  00000+0  25158-3 0  9999
2 56310   9.9888  62.2947 0000731 262.9665  97.0466 14.96420979168307
SNIPE 4                 
1 56744U 23072B   26138.16287262  .00014372  00000+0  34917-3 0  9997
2 56744  97.5272 343.2417 0007020  80.2409 279.9630 15.41087521165480
SNIPE 2                 
1 56745U 23072C   26138.16024831  .00018921  00000+0  39923-3 0  9995
2 56745  97.5269 346.0823 0006364 104.6598 255.5356 15.45243728165605
2023-072G               
1 56749U 23072G   26138.16627833  .00019841  00000+0  37053-3 0  9994
2 56749  97.4925 344.8624 0005609  96.1236 264.0654 15.48790444165811
GEISAT PRECURSOR        
1 56934U 23084C   26138.15574880  .00005331  00000+0  16348-3 0  9998
2 56934  97.6188 278.1382 0007249  94.7440 265.4630 15.34202229162925
BLACKJACK ACES-3        
1 56950U 23084U   26138.11892890  .00003625  00000+0  18002-3 0  9999
2 56950  97.6172 273.0935 0004254 105.2479 254.9225 15.18329320162609
BLACKJACK ACES-2        
1 56955U 23084Z   26138.12548826  .00004848  00000+0  23954-3 0  9992
2 56955  97.6171 273.1856 0002651  93.1887 266.9650 15.18332800162616
BLACKJACK ACES-1        
1 56956U 23084AA  26138.11327832  .00005111  00000+0  25345-3 0  9994
2 56956  97.6161 272.9506 0001526  95.8929 264.2478 15.18181330112334
ION SCV-011             
1 56957U 23084AB  26138.08692936  .00003892  00000+0  14331-3 0  9998
2 56957  98.1377 322.5856 0008211 135.7451 224.4444 15.28524404161218
GHOST-3                 
1 56958U 23084AC  26138.15721561  .00010564  00000+0  21221-3 0  9994
2 56958  97.6184 285.1501 0006848  52.7227 307.4645 15.46831217163370
TOMORROW-R2             
1 56962U 23084AG  26137.91048831  .00152674  10646-4  52270-3 0  9993
2 56962  97.5927 298.2107 0002085 275.4573  84.6461 15.89732718164221
AFR-1                   
1 56964U 23084AJ  26138.18199701  .00003333  00000+0  12365-3 0  9994
2 56964  97.6236 274.1649 0012032  86.3215 273.9399 15.28272924162644
METEOR-M2 3             
1 57166U 23091A   26138.23696801  .00000001  00000+0  19102-4 0  9992
2 57166  98.6099 193.8247 0002810 251.4201 108.6672 14.24043994150251
UMKA 1 (RS40S)          
1 57172U 23091G   26138.15289605  .00004082  00000+0  19000-3 0  9999
2 57172  97.5066 196.9709 0011929 218.1169 141.9223 15.20442531159440
2023-091H               
1 57173U 23091H   26138.19531036  .00006741  00000+0  24980-3 0  9999
2 57173  97.5062 201.1580 0009349 210.4085 149.6612 15.27930329159720
2023-091J               
1 57174U 23091J   26138.17884572  .00001988  00000+0  11392-3 0  9995
2 57174  97.5073 191.7045 0011780 248.4266 111.5710 15.13703951159098
CUBEBEL 2 (EU11S)       
1 57175U 23091K   26138.20565367  .00006945  00000+0  25376-3 0  9993
2 57175  97.5065 201.1702 0009376 212.1363 147.9306 15.28387082159723
SITRO-AIS 5 (KATYS)     
1 57176U 23091L   26138.16335031  .00006728  00000+0  24344-3 0  9995
2 57176  97.5074 201.7920 0011220 200.5058 159.5733 15.28703695159753
ZORKIY-2M 1             
1 57177U 23091M   26138.20626539  .00004003  00000+0  18618-3 0  9998
2 57177  97.5107 197.2733 0012588 214.9304 145.1107 15.20476133159441
