OBJECT_NAME,OBJECT_ID,EPOCH,MEAN_MOTION,ECCENTRICITY,INCLINATION,RA_OF_ASC_NODE,ARG_OF_PERICENTER,MEAN_ANOMALY,EPHEMERIS_TYPE,CLASSIFICATION_TYPE,NORAD_CAT_ID,ELEMENT_SET_NO,REV_AT_EPOCH,BSTAR,MEAN_MOTION_DOT,MEAN_MOTION_DDOT
CONNECTA T1.2,2023-001D,2026-05-18T03:24:54.566208,15.48410167,.0006417,97.3288,208.3490,188.0128,172.1022,0,U,55012,999,18789,.51621E-3,.27347E-3,0
BIRKELAND,2023-001G,2026-05-18T02:56:45.308832,15.39507355,.0006336,97.3357,206.0265,198.3181,161.7837,0,U,55015,999,18772,.16502E-3,.6398E-4,0
ION SCV-008,2023-001AU,2026-05-18T04:28:59.768832,15.28171874,.0016431,97.5699,234.0152,117.0006,243.2912,0,U,55051,999,18675,.15255E-3,.4126E-4,0
ION SCV-007,2023-001BD,2026-05-18T03:06:49.256064,14.77523044,.0013735,97.9022,201.7386,75.2347,285.0385,0,U,55060,999,18181,.45831E-4,.276E-5,0
HUYGENS,2023-001CN,2026-05-18T02:56:52.243296,15.39506607,.0009766,97.3262,205.2952,181.0470,179.0757,0,U,55093,999,18774,.16712E-3,.6486E-4,0
SHARJAHSAT-1,2023-001CZ,2026-05-18T03:04:03.139104,15.47890113,.0005674,97.3186,206.5019,194.3482,165.7608,0,U,55104,999,18784,.25204E-3,.13041E-3,0
HORUS 1,2023-025A,2026-05-17T16:12:23.640768,15.23587247,.000225,97.3470,212.9099,107.7511,252.3972,0,U,55690,999,17940,.16896624E-3,.3973E-4,0
HORUS 2,2023-032A,2026-05-18T04:06:17.545824,15.23434604,.0002977,97.3539,214.1713,136.0281,224.1193,0,U,55844,999,17691,.17769E-3,.4162E-4,0
GLOBAL-19,2023-041B,2026-05-18T00:56:17.689632,15.38374271,.0005112,42.0031,17.7796,141.3666,218.7540,0,U,55982,999,17728,.25271E-3,.9527E-4,0
BRO-9,2023-054H,2026-05-17T10:59:31.526592,15.82872718,.00078329,97.2990,53.6638,121.1703,239.0335,0,U,56185,999,17420,.80557817E-3,.173226E-2,0
ION SCV-010,2023-054Q,2026-05-18T03:05:09.465792,15.25910725,.0011553,97.3817,28.0137,317.4685,42.5657,0,U,56192,999,17161,.1325E-3,.333E-4,0
TELEOS-2,2023-057C,2026-05-18T05:30:37.833120,14.96420979,.0000731,9.9888,62.2947,262.9665,97.0466,0,U,56310,999,16830,.25158E-3,.362E-4,0
SNIPE 4,2023-072B,2026-05-18T03:54:32.194368,15.41087521,.000702,97.5272,343.2417,80.2409,279.9630,0,U,56744,999,16548,.34917E-3,.14372E-3,0
SNIPE 2,2023-072C,2026-05-18T03:50:45.453984,15.45243728,.0006364,97.5269,346.0823,104.6598,255.5356,0,U,56745,999,16560,.39923E-3,.18921E-3,0
2023-072G,2023-072G,2026-05-18T03:59:26.447712,15.48790444,.0005609,97.4925,344.8624,96.1236,264.0654,0,U,56749,999,16581,.37053E-3,.19841E-3,0
GEISAT PRECURSOR,2023-084C,2026-05-18T03:44:16.696320,15.34202229,.0007249,97.6188,278.1382,94.7440,265.4630,0,U,56934,999,16292,.16348E-3,.5331E-4,0
BLACKJACK ACES-3,2023-084U,2026-05-18T02:51:15.456960,15.18329320,.0004254,97.6172,273.0935,105.2479,254.9225,0,U,56950,999,16260,.18002E-3,.3625E-4,0
BLACKJACK ACES-2,2023-084Z,2026-05-18T03:00:42.185664,15.18332800,.0002651,97.6171,273.1856,93.1887,266.9650,0,U,56955,999,16261,.23954E-3,.4848E-4,0
BLACKJACK ACES-1,2023-084AA,2026-05-18T02:43:07.246848,15.18181330,.0001526,97.6161,272.9506,95.8929,264.2478,0,U,56956,999,11233,.25345E-3,.5111E-4,0
ION SCV-011,2023-084AB,2026-05-18T02:05:10.696704,15.28524404,.0008211,98.1377,322.5856,135.7451,224.4444,0,U,56957,999,16121,.14331E-3,.3892E-4,0
GHOST-3,2023-084AC,2026-05-18T03:46:23.428704,15.46831217,.0006848,97.6184,285.1501,52.7227,307.4645,0,U,56958,999,16337,.21221E-3,.10564E-3,0
TOMORROW-R2,2023-084AG,2026-05-17T21:51:06.189984,15.89732718,.00020852,97.5927,298.2107,275.4573,84.6461,0,U,56962,999,16422,.52269836E-3,.152674E-2,.10646434E-4
AFR-1,2023-084AJ,2026-05-18T04:22:04.541664,15.28272924,.0012032,97.6236,274.1649,86.3215,273.9399,0,U,56964,999,16264,.12365E-3,.3333E-4,0
METEOR-M2 3,2023-091A,2026-05-18T05:41:14.036064,14.24043994,.000281,98.6099,193.8247,251.4201,108.6672,0,U,57166,999,15025,.19102E-4,.1E-7,0
UMKA 1 (RS40S),2023-091G,2026-05-18T03:40:10.218720,15.20442531,.0011929,97.5066,196.9709,218.1169,141.9223,0,U,57172,999,15944,.19E-3,.4082E-4,0
2023-091H,2023-091H,2026-05-18T04:41:14.815104,15.27930329,.0009349,97.5062,201.1580,210.4085,149.6612,0,U,57173,999,15972,.2498E-3,.6741E-4,0
2023-091J,2023-091J,2026-05-18T04:17:32.270208,15.13703951,.001178,97.5073,191.7045,248.4266,111.5710,0,U,57174,999,15909,.11392E-3,.1988E-4,0
CUBEBEL 2 (EU11S),2023-091K,2026-05-18T04:56:08.477088,15.28387082,.0009376,97.5065,201.1702,212.1363,147.9306,0,U,57175,999,15972,.25376E-3,.6945E-4,0
SITRO-AIS 5 (KATYS),2023-091L,2026-05-18T03:55:13.466784,15.28703695,.001122,97.5074,201.7920,200.5058,159.5733,0,U,57176,999,15975,.24344E-3,.6728E-4,0
ZORKIY-2M 1,2023-091M,2026-05-18T04:57:01.329696,15.20476133,.0012588,97.5107,197.2733,214.9304,145.1107,0,U,57177,999,15944,.18618E-3,.4003E-4,0
